{
    "links": {
        "self": "http://www.neowsapp.com/rest/v1/neo/3566606?api_key=iIulBulltgU6a56xZRHN4H3l9WmuAYTsLGpBGhQ2"
    },
    "id": "3566606",
    "neo_reference_id": "3566606",
    "name": "(2011 KG13)",
    "designation": "2011 KG13",
    "nasa_jpl_url": "http://ssd.jpl.nasa.gov/sbdb.cgi?sstr=3566606",
    "absolute_magnitude_h": 25.7,
    "estimated_diameter": {
        "kilometers": {
            "estimated_diameter_min": 0.0192555078,
            "estimated_diameter_max": 0.0430566244
        },
        "meters": {
            "estimated_diameter_min": 19.2555078188,
            "estimated_diameter_max": 43.0566244241
        },
        "miles": {
            "estimated_diameter_min": 0.0119648141,
            "estimated_diameter_max": 0.0267541378
        },
        "feet": {
            "estimated_diameter_min": 63.1742402722,
            "estimated_diameter_max": 141.2618956756
        }
    },
    "is_potentially_hazardous_asteroid": false,
    "close_approach_data": [
        {
            "close_approach_date": "2011-05-24",
            "close_approach_date_full": "2011-May-24 21:03",
            "epoch_date_close_approach": 1306270980000,
            "relative_velocity": {
                "kilometers_per_second": "13.0388684297",
                "kilometers_per_hour": "46939.9263470165",
                "miles_per_hour": "29166.6447904559"
            },
            "miss_distance": {
                "astronomical": "0.0081619271",
                "lunar": "3.1749896419",
                "kilometers": "1221006.909255277",
                "miles": "758698.5120937426"
            },
            "orbiting_body": "Earth"
        },
        {
            "close_approach_date": "2011-05-24",
            "close_approach_date_full": "2011-May-24 23:27",
            "epoch_date_close_approach": 1306279620000,
            "relative_velocity": {
                "kilometers_per_second": "13.9293048605",
                "kilometers_per_hour": "50145.4974976895",
                "miles_per_hour": "31158.4620423838"
            },
            "miss_distance": {
                "astronomical": "0.0096365829",
                "lunar": "3.7486307481",
                "kilometers": "1441612.275918423",
                "miles": "895776.3305553174"
            },
            "orbiting_body": "Moon"
        }
    ],
    "orbital_data": {
        "orbit_id": "6",
        "orbit_determination_date": "2017-04-06 08:53:26",
        "first_observation_date": "2011-05-27",
        "last_observation_date": "2011-05-28",
        "data_arc_in_days": 1,
        "observations_used": 20,
        "orbit_uncertainty": "8",
        "minimum_orbit_intersection": ".00675547",
        "jupiter_tisserand_invariant": "3.306",
        "epoch_osculation": "2455709.5",
        "eccentricity": ".6192628679358786",
        "semi_major_axis": "2.298484993988451",
        "inclination": "2.554801617253825",
        "ascending_node_longitude": "71.17639737926361",
        "orbital_period": "1272.802254723089",
        "perihelion_distance": ".8751185847035822",
        "perihelion_argument": "121.4583703250777",
        "aphelion_distance": "3.72185140327332",
        "perihelion_time": "2455669.978156729562",
        "mean_anomaly": "11.17837710026142",
        "mean_motion": ".2828404794728477",
        "equinox": "J2000",
        "orbit_class": {
            "orbit_class_type": "APO",
            "orbit_class_description": "Near-Earth asteroid orbits which cross the Earth’s orbit similar to that of 1862 Apollo",
            "orbit_class_range": "a (semi-major axis) > 1.0 AU; q (perihelion) < 1.017 AU"
        }
    },
    "is_sentry_object": false
}